{"type": "FeatureCollection", "features": [ {"type": "Feature", "properties": {"norad_id": 30530, "name": "FENGYUN 1C DEB", "group": "fengyun-1c-debris", "lat": -67.60887307563794, "lon": 50.916376879076864, "alt_km": 846.6568856381964, "timestamp": "2025-12-17T15:50:10.056609+00:00", "meta": {"OBJECT_NAME": "FENGYUN 1C DEB", "OBJECT_ID": "1999-025AJU", "EPOCH": "2025-12-17T01:23:09.636288", "MEAN_MOTION": 14.36789825, "ECCENTRICITY": 0.01003337, "INCLINATION": 98.396, "RA_OF_ASC_NODE": 29.322, "ARG_OF_PERICENTER": 124.0155, "MEAN_ANOMALY": 294.1646, "EPHEMERIS_TYPE": 0, "CLASSIFICATION_TYPE": "U", "NORAD_CAT_ID": 30530, "ELEMENT_SET_NO": 999, "REV_AT_EPOCH": 98847, "BSTAR": 0.00020595384, "MEAN_MOTION_DOT": 6e-06, "MEAN_MOTION_DDOT": 0}, "tle": {"line1": "1 30530U 99025AJU 25351.05775042  .00000600  00000+0  20595-3 0  9991", "line2": "2 30530  98.3960  29.3220 0100333 124.0155 294.1646 14.36789825988475"}}, "geometry": {"type": "Point", "coordinates": [50.916376879076864, -67.60887307563794]}}, {"type": "Feature", "properties": {"norad_id": 30531, "name": "FENGYUN 1C DEB", "group": "fengyun-1c-debris", "lat": 53.792248451622264, "lon": 162.84102763190523, "alt_km": 695.4285368454548, "timestamp": "2025-12-17T15:50:10.056620+00:00", "meta": {"OBJECT_NAME": "FENGYUN 1C DEB", "OBJECT_ID": "1999-025AJV", "EPOCH": "2025-12-17T00:47:58.891200", "MEAN_MOTION": 14.62037912, "ECCENTRICITY": 0.00272739, "INCLINATION": 102.3102, "RA_OF_ASC_NODE": 179.2658, "ARG_OF_PERICENTER": 194.6775, "MEAN_ANOMALY": 165.3622, "EPHEMERIS_TYPE": 0, "CLASSIFICATION_TYPE": "U", "NORAD_CAT_ID": 30531, "ELEMENT_SET_NO": 999, "REV_AT_EPOCH": 97758, "BSTAR": 0.003387228, "MEAN_MOTION_DOT": 0.00017049, "MEAN_MOTION_DDOT": 0}, "tle": {"line1": "1 30531U 99025AJV 25351.03332050  .00017049  00000+0  33872-2 0  9994", "line2": "2 30531 102.3102 179.2658 0027273 194.6775 165.3622 14.62037912977587"}}, "geometry": {"type": "Point", "coordinates": [162.84102763190523, 53.792248451622264]}}, {"type": "Feature", "properties": {"norad_id": 30532, "name": "FENGYUN 1C DEB", "group": "fengyun-1c-debris", "lat": -62.30611144514835, "lon": -156.88769321602086, "alt_km": 469.98196876912516, "timestamp": "2025-12-17T15:50:10.056631+00:00", "meta": {"OBJECT_NAME": "FENGYUN 1C DEB", "OBJECT_ID": "1999-025AJW", "EPOCH": "2025-12-17T02:12:24.689952", "MEAN_MOTION": 15.28541145, "ECCENTRICITY": 0.00241356, "INCLINATION": 96.9628, "RA_OF_ASC_NODE": 36.0453, "ARG_OF_PERICENTER": 246.8587, "MEAN_ANOMALY": 113.0111, "EPHEMERIS_TYPE": 0, "CLASSIFICATION_TYPE": "U", "NORAD_CAT_ID": 30532, "ELEMENT_SET_NO": 999, "REV_AT_EPOCH": 97754, "BSTAR": 0.009368351, "MEAN_MOTION_DOT": 0.00271375, "MEAN_MOTION_DDOT": 0}, "tle": {"line1": "1 30532U 99025AJW 25351.09195243  .00271375  00000+0  93684-2 0  9993", "line2": "2 30532  96.9628  36.0453 0024135 246.8587 113.0111 15.28541145977547"}}, "geometry": {"type": "Point", "coordinates": [-156.88769321602086, -62.30611144514835]}}, {"type": "Feature", "properties": {"norad_id": 30533, "name": "FENGYUN 1C DEB", "group": "fengyun-1c-debris", "lat": -66.3212025203145, "lon": -80.02579418706965, "alt_km": 742.6882397542759, "timestamp": "2025-12-17T15:50:10.056641+00:00", "meta": {"OBJECT_NAME": "FENGYUN 1C DEB", "OBJECT_ID": "1999-025AJX", "EPOCH": "2025-12-17T08:13:28.693344", "MEAN_MOTION": 14.53931658, "ECCENTRICITY": 0.00819064, "INCLINATION": 98.8331, "RA_OF_ASC_NODE": 120.4087, "ARG_OF_PERICENTER": 135.4596, "MEAN_ANOMALY": 252.5419, "EPHEMERIS_TYPE": 0, "CLASSIFICATION_TYPE": "U", "NORAD_CAT_ID": 30533, "ELEMENT_SET_NO": 999, "REV_AT_EPOCH": 97888, "BSTAR": 0.0024683546, "MEAN_MOTION_DOT": 0.00010825, "MEAN_MOTION_DDOT": 0}, "tle": {"line1": "1 30533U 99025AJX 25351.34269321  .00010825  00000+0  24684-2 0  9996", "line2": "2 30533  98.8331 120.4087 0081906 135.4596 252.5419 14.53931658978880"}}, "geometry": {"type": "Point", "coordinates": [-80.02579418706965, -66.3212025203145]}}, {"type": "Feature", "properties": {"norad_id": 30539, "name": "FENGYUN 1C DEB", "group": "fengyun-1c-debris", "lat": 1.006737774016189, "lon": -27.733156709954194, "alt_km": 724.6375657338676, "timestamp": "2025-12-17T15:50:10.056652+00:00", "meta": {"OBJECT_NAME": "FENGYUN 1C DEB", "OBJECT_ID": "1999-025AKD", "EPOCH": "2025-12-16T21:40:54.984288", "MEAN_MOTION": 14.55429581, "ECCENTRICITY": 0.01153703, "INCLINATION": 98.8797, "RA_OF_ASC_NODE": 331.6204, "ARG_OF_PERICENTER": 263.0266, "MEAN_ANOMALY": 95.7795, "EPHEMERIS_TYPE": 0, "CLASSIFICATION_TYPE": "U", "NORAD_CAT_ID": 30539, "ELEMENT_SET_NO": 999, "REV_AT_EPOCH": 99426, "BSTAR": 0.00056002869, "MEAN_MOTION_DOT": 2.603e-05, "MEAN_MOTION_DDOT": 0}, "tle": {"line1": "1 30539U 99025AKD 25350.90341417  .00002603  00000+0  56003-3 0  9996", "line2": "2 30539  98.8797 331.6204 0115370 263.0266  95.7795 14.55429581994267"}}, "geometry": {"type": "Point", "coordinates": [-27.733156709954194, 1.006737774016189]}}, {"type": "Feature", "properties": {"norad_id": 30540, "name": "FENGYUN 1C DEB", "group": "fengyun-1c-debris", "lat": 19.605048967269685, "lon": -76.68950990427754, "alt_km": 797.8401385274483, "timestamp": "2025-12-17T15:50:10.056662+00:00", "meta": {"OBJECT_NAME": "FENGYUN 1C DEB", "OBJECT_ID": "1999-025AKE", "EPOCH": "2025-12-16T07:20:49.339968", "MEAN_MOTION": 14.32314657, "ECCENTRICITY": 0.00511351, "INCLINATION": 98.8784, "RA_OF_ASC_NODE": 98.7335, "ARG_OF_PERICENTER": 51.595, "MEAN_ANOMALY": 331.6473, "EPHEMERIS_TYPE": 0, "CLASSIFICATION_TYPE": "U", "NORAD_CAT_ID": 30540, "ELEMENT_SET_NO": 999, "REV_AT_EPOCH": 97337, "BSTAR": 0.0013464386, "MEAN_MOTION_DOT": 3.644e-05, "MEAN_MOTION_DDOT": 0}, "tle": {"line1": "1 30540U 99025AKE 25350.30612662  .00003644  00000+0  13464-2 0  9994", "line2": "2 30540  98.8784  98.7335 0051135  51.5950 331.6473 14.32314657973375"}}, "geometry": {"type": "Point", "coordinates": [-76.68950990427754, 19.605048967269685]}}, {"type": "Feature", "properties": {"norad_id": 30541, "name": "FENGYUN 1C DEB", "group": "fengyun-1c-debris", "lat": 28.201882347792587, "lon": 33.43320016210899, "alt_km": 804.2212841576547, "timestamp": "2025-12-17T15:50:10.056685+00:00", "meta": {"OBJECT_NAME": "FENGYUN 1C DEB", "OBJECT_ID": "1999-025AKF", "EPOCH": "2025-12-17T02:12:11.048256", "MEAN_MOTION": 14.23073842, "ECCENTRICITY": 0.00180289, "INCLINATION": 98.6945, "RA_OF_ASC_NODE": 37.5791, "ARG_OF_PERICENTER": 73.6153, "MEAN_ANOMALY": 286.7006, "EPHEMERIS_TYPE": 0, "CLASSIFICATION_TYPE": "U", "NORAD_CAT_ID": 30541, "ELEMENT_SET_NO": 999, "REV_AT_EPOCH": 97389, "BSTAR": 0.00088795798, "MEAN_MOTION_DOT": 1.963e-05, "MEAN_MOTION_DDOT": 0}, "tle": {"line1": "1 30541U 99025AKF 25351.09179454  .00001963  00000+0  88796-3 0  9992", "line2": "2 30541  98.6945  37.5791 0018028  73.6153 286.7006 14.23073842973891"}}, "geometry": {"type": "Point", "coordinates": [33.43320016210899, 28.201882347792587]}}, {"type": "Feature", "properties": {"norad_id": 30542, "name": "FENGYUN 1C DEB", "group": "fengyun-1c-debris", "lat": -28.359725043317056, "lon": 25.05694933568009, "alt_km": 856.0734429462809, "timestamp": "2025-12-17T15:50:10.056697+00:00", "meta": {"OBJECT_NAME": "FENGYUN 1C DEB", "OBJECT_ID": "1999-025AKG", "EPOCH": "2025-12-17T07:44:18.080736", "MEAN_MOTION": 14.06975412, "ECCENTRICITY": 0.00273327, "INCLINATION": 98.7866, "RA_OF_ASC_NODE": 19.9401, "ARG_OF_PERICENTER": 321.0075, "MEAN_ANOMALY": 102.2549, "EPHEMERIS_TYPE": 0, "CLASSIFICATION_TYPE": "U", "NORAD_CAT_ID": 30542, "ELEMENT_SET_NO": 999, "REV_AT_EPOCH": 96983, "BSTAR": 0.00020616846, "MEAN_MOTION_DOT": 3.02e-06, "MEAN_MOTION_DDOT": 0}, "tle": {"line1": "1 30542U 99025AKG 25351.32243149  .00000302  00000+0  20617-3 0  9996", "line2": "2 30542  98.7866  19.9401 0027332 321.0075 102.2549 14.06975412969836"}}, "geometry": {"type": "Point", "coordinates": [25.05694933568009, -28.359725043317056]}}, {"type": "Feature", "properties": {"norad_id": 30543, "name": "FENGYUN 1C DEB", "group": "fengyun-1c-debris", "lat": -10.482411270720856, "lon": 2.7355246511226583, "alt_km": 839.5892807412574, "timestamp": "2025-12-17T15:50:10.056707+00:00", "meta": {"OBJECT_NAME": "FENGYUN 1C DEB", "OBJECT_ID": "1999-025AKH", "EPOCH": "2025-12-16T07:27:15.834816", "MEAN_MOTION": 14.03745401, "ECCENTRICITY": 0.00723556, "INCLINATION": 98.8332, "RA_OF_ASC_NODE": 359.776, "ARG_OF_PERICENTER": 23.6688, "MEAN_ANOMALY": 351.6673, "EPHEMERIS_TYPE": 0, "CLASSIFICATION_TYPE": "U", "NORAD_CAT_ID": 30543, "ELEMENT_SET_NO": 999, "REV_AT_EPOCH": 96555, "BSTAR": 0.00033170228, "MEAN_MOTION_DOT": 4.91e-06, "MEAN_MOTION_DDOT": 0}, "tle": {"line1": "1 30543U 99025AKH 25350.31059994  .00000491  00000+0  33170-3 0  9995", "line2": "2 30543  98.8332 359.7760 0072355  23.6688 351.6673 14.03745401965552"}}, "geometry": {"type": "Point", "coordinates": [2.7355246511226583, -10.482411270720856]}}, {"type": "Feature", "properties": {"norad_id": 30545, "name": "FENGYUN 1C DEB", "group": "fengyun-1c-debris", "lat": -54.409489311823926, "lon": -144.0310780315566, "alt_km": 969.5112870566072, "timestamp": "2025-12-17T15:50:10.056718+00:00", "meta": {"OBJECT_NAME": "FENGYUN 1C DEB", "OBJECT_ID": "1999-025AKK", "EPOCH": "2025-12-16T01:55:01.765920", "MEAN_MOTION": 13.20785031, "ECCENTRICITY": 0.04726799, "INCLINATION": 98.9986, "RA_OF_ASC_NODE": 201.8152, "ARG_OF_PERICENTER": 2.8282, "MEAN_ANOMALY": 357.5348, "EPHEMERIS_TYPE": 0, "CLASSIFICATION_TYPE": "U", "NORAD_CAT_ID": 30545, "ELEMENT_SET_NO": 999, "REV_AT_EPOCH": 90974, "BSTAR": 0.00057440201, "MEAN_MOTION_DOT": 3.84e-06, "MEAN_MOTION_DDOT": 0}, "tle": {"line1": "1 30545U 99025AKK 25350.07988155  .00000384  00000+0  57440-3 0  9997", "line2": "2 30545  98.9986 201.8152 0472679   2.8282 357.5348 13.20785031909748"}}, "geometry": {"type": "Point", "coordinates": [-144.0310780315566, -54.409489311823926]}}]}